[{"OBJECT_NAME":"ASTROCAST-0403","OBJECT_ID":"2023-001DG","EPOCH":"2026-03-09T19:45:35.762976","MEAN_MOTION":15.28004949,"ECCENTRICITY":0.00047706,"INCLINATION":97.5604,"RA_OF_ASC_NODE":161.3228,"ARG_OF_PERICENTER":338.0704,"MEAN_ANOMALY":22.033,"EPHEMERIS_TYPE":0,"CLASSIFICATION_TYPE":"U","NORAD_CAT_ID":55111,"ELEMENT_SET_NO":999,"REV_AT_EPOCH":12937,"BSTAR":0.0005131719,"MEAN_MOTION_DOT":0.00013959,"MEAN_MOTION_DDOT":0},{"OBJECT_NAME":"STARLINK-32635","OBJECT_ID":"2024-224S","EPOCH":"2026-03-09T07:20:14.951904","MEAN_MOTION":15.27584108,"ECCENTRICITY":4.315e-5,"INCLINATION":42.9992,"RA_OF_ASC_NODE":167.849,"ARG_OF_PERICENTER":242.1694,"MEAN_ANOMALY":117.9114,"EPHEMERIS_TYPE":0,"CLASSIFICATION_TYPE":"U","NORAD_CAT_ID":62155,"ELEMENT_SET_NO":999,"REV_AT_EPOCH":7217,"BSTAR":0.00091923903,"MEAN_MOTION_DOT":0.00025123,"MEAN_MOTION_DDOT":0}]
